{"type": "FeatureCollection", "features": [ {"type": "Feature", "properties": {"norad_id": 35480, "name": "IRIDIUM 33 DEB", "group": "iridium-33-debris", "lat": 73.96218230113104, "lon": -165.47186379115516, "alt_km": 708.8662210262319, "timestamp": "2025-12-07T03:52:32.887002+00:00", "meta": {"OBJECT_NAME": "IRIDIUM 33 DEB", "OBJECT_ID": "1997-051QA", "EPOCH": "2025-12-01T21:29:27.496896", "MEAN_MOTION": 14.49686619, "ECCENTRICITY": 0.00155495, "INCLINATION": 86.3575, "RA_OF_ASC_NODE": 29.6125, "ARG_OF_PERICENTER": 136.7189, "MEAN_ANOMALY": 223.524, "EPHEMERIS_TYPE": 0, "CLASSIFICATION_TYPE": "U", "NORAD_CAT_ID": 35480, "ELEMENT_SET_NO": 999, "REV_AT_EPOCH": 86874, "BSTAR": 0.000651702, "MEAN_MOTION_DOT": 2.53e-05, "MEAN_MOTION_DDOT": 0}, "tle": {"line1": "1 35480U 97051QA  25335.89545714  .00002530  00000+0  65170-3 0  9994", "line2": "2 35480  86.3575  29.6125 0015549 136.7189 223.5240 14.49686619868745"}}, "geometry": {"type": "Point", "coordinates": [-165.47186379115516, 73.96218230113104]}}, {"type": "Feature", "properties": {"norad_id": 35484, "name": "IRIDIUM 33 DEB", "group": "iridium-33-debris", "lat": 13.29614134258222, "lon": -3.7812970107174206, "alt_km": 584.3571815299347, "timestamp": "2025-12-07T03:52:32.887012+00:00", "meta": {"OBJECT_NAME": "IRIDIUM 33 DEB", "OBJECT_ID": "1997-051QE", "EPOCH": "2025-12-01T19:32:14.692416", "MEAN_MOTION": 14.97587734, "ECCENTRICITY": 0.00218288, "INCLINATION": 86.3628, "RA_OF_ASC_NODE": 357.8533, "ARG_OF_PERICENTER": 162.6444, "MEAN_ANOMALY": 197.5538, "EPHEMERIS_TYPE": 0, "CLASSIFICATION_TYPE": "U", "NORAD_CAT_ID": 35484, "ELEMENT_SET_NO": 999, "REV_AT_EPOCH": 61852, "BSTAR": 0.0025030806, "MEAN_MOTION_DOT": 0.00029486, "MEAN_MOTION_DDOT": 0}, "tle": {"line1": "1 35484U 97051QE  25335.81405894  .00029486  00000+0  25031-2 0  9994", "line2": "2 35484  86.3628 357.8533 0021828 162.6444 197.5538 14.97587734618526"}}, "geometry": {"type": "Point", "coordinates": [-3.7812970107174206, 13.29614134258222]}}, {"type": "Feature", "properties": {"norad_id": 35488, "name": "IRIDIUM 33 DEB", "group": "iridium-33-debris", "lat": 74.00030813997567, "lon": -43.60219469475801, "alt_km": 592.6799045992557, "timestamp": "2025-12-07T03:52:32.887022+00:00", "meta": {"OBJECT_NAME": "IRIDIUM 33 DEB", "OBJECT_ID": "1997-051QJ", "EPOCH": "2025-12-06T08:06:29.076192", "MEAN_MOTION": 14.82814099, "ECCENTRICITY": 0.00304933, "INCLINATION": 86.3261, "RA_OF_ASC_NODE": 303.8283, "ARG_OF_PERICENTER": 63.1444, "MEAN_ANOMALY": 297.2891, "EPHEMERIS_TYPE": 0, "CLASSIFICATION_TYPE": "U", "NORAD_CAT_ID": 35488, "ELEMENT_SET_NO": 999, "REV_AT_EPOCH": 88171, "BSTAR": 0.0025956954, "MEAN_MOTION_DOT": 0.00021231, "MEAN_MOTION_DDOT": 0}, "tle": {"line1": "1 35488U 97051QJ  25340.33783653  .00021231  00000+0  25957-2 0  9990", "line2": "2 35488  86.3261 303.8283 0030493  63.1444 297.2891 14.82814099881713"}}, "geometry": {"type": "Point", "coordinates": [-43.60219469475801, 74.00030813997567]}}, {"type": "Feature", "properties": {"norad_id": 35616, "name": "IRIDIUM 33 DEB", "group": "iridium-33-debris", "lat": -78.08621684642975, "lon": -174.0992304317264, "alt_km": 629.9934368591612, "timestamp": "2025-12-07T03:52:32.887042+00:00", "meta": {"OBJECT_NAME": "IRIDIUM 33 DEB", "OBJECT_ID": "1997-051QN", "EPOCH": "2025-12-06T07:15:38.847744", "MEAN_MOTION": 14.81564916, "ECCENTRICITY": 0.00091957, "INCLINATION": 86.3542, "RA_OF_ASC_NODE": 348.7026, "ARG_OF_PERICENTER": 186.8662, "MEAN_ANOMALY": 173.2436, "EPHEMERIS_TYPE": 0, "CLASSIFICATION_TYPE": "U", "NORAD_CAT_ID": 35616, "ELEMENT_SET_NO": 999, "REV_AT_EPOCH": 87479, "BSTAR": 0.0030438731, "MEAN_MOTION_DOT": 0.00023991, "MEAN_MOTION_DDOT": 0}, "tle": {"line1": "1 35616U 97051QN  25340.30253296  .00023991  00000+0  30439-2 0  9991", "line2": "2 35616  86.3542 348.7026 0009195 186.8662 173.2436 14.81564916874798"}}, "geometry": {"type": "Point", "coordinates": [-174.0992304317264, -78.08621684642975]}}, {"type": "Feature", "properties": {"norad_id": 35618, "name": "IRIDIUM 33 DEB", "group": "iridium-33-debris", "lat": -73.65980876723748, "lon": -171.45139650566182, "alt_km": 743.4226953952693, "timestamp": "2025-12-07T03:52:32.887061+00:00", "meta": {"OBJECT_NAME": "IRIDIUM 33 DEB", "OBJECT_ID": "1997-051QQ", "EPOCH": "2025-12-05T07:42:53.148672", "MEAN_MOTION": 14.52258119, "ECCENTRICITY": 0.00302089, "INCLINATION": 86.3407, "RA_OF_ASC_NODE": 356.7447, "ARG_OF_PERICENTER": 46.3254, "MEAN_ANOMALY": 314.0448, "EPHEMERIS_TYPE": 0, "CLASSIFICATION_TYPE": "U", "NORAD_CAT_ID": 35618, "ELEMENT_SET_NO": 999, "REV_AT_EPOCH": 65286, "BSTAR": 0.00091388234, "MEAN_MOTION_DOT": 3.753e-05, "MEAN_MOTION_DDOT": 0}, "tle": {"line1": "1 35618U 97051QQ  25339.32144848  .00003753  00000+0  91388-3 0  9990", "line2": "2 35618  86.3407 356.7447 0030208  46.3254 314.0448 14.52258119652865"}}, "geometry": {"type": "Point", "coordinates": [-171.45139650566182, -73.65980876723748]}}, {"type": "Feature", "properties": {"norad_id": 35620, "name": "IRIDIUM 33 DEB", "group": "iridium-33-debris", "lat": 16.227921703970928, "lon": 38.75450217396044, "alt_km": 806.7422549189232, "timestamp": "2025-12-07T03:52:32.887083+00:00", "meta": {"OBJECT_NAME": "IRIDIUM 33 DEB", "OBJECT_ID": "1997-051QS", "EPOCH": "2025-12-06T02:02:49.416288", "MEAN_MOTION": 14.3768993, "ECCENTRICITY": 0.01438549, "INCLINATION": 86.3906, "RA_OF_ASC_NODE": 220.2605, "ARG_OF_PERICENTER": 280.8706, "MEAN_ANOMALY": 77.6331, "EPHEMERIS_TYPE": 0, "CLASSIFICATION_TYPE": "U", "NORAD_CAT_ID": 35620, "ELEMENT_SET_NO": 999, "REV_AT_EPOCH": 59870, "BSTAR": 0.0080397283, "MEAN_MOTION_DOT": 0.00027327, "MEAN_MOTION_DDOT": 0}, "tle": {"line1": "1 35620U 97051QS  25340.08529417  .00027327  00000+0  80397-2 0  9997", "line2": "2 35620  86.3906 220.2605 0143854 280.8706  77.6331 14.37689930598709"}}, "geometry": {"type": "Point", "coordinates": [38.75450217396044, 16.227921703970928]}}, {"type": "Feature", "properties": {"norad_id": 35622, "name": "IRIDIUM 33 DEB", "group": "iridium-33-debris", "lat": 2.1935118749570095, "lon": -93.50497872438551, "alt_km": 550.9014493319601, "timestamp": "2025-12-07T03:52:32.887102+00:00", "meta": {"OBJECT_NAME": "IRIDIUM 33 DEB", "OBJECT_ID": "1997-051QU", "EPOCH": "2025-12-06T06:10:47.790912", "MEAN_MOTION": 15.03498314, "ECCENTRICITY": 0.00106929, "INCLINATION": 86.2036, "RA_OF_ASC_NODE": 266.7937, "ARG_OF_PERICENTER": 6.4287, "MEAN_ANOMALY": 145.8832, "EPHEMERIS_TYPE": 0, "CLASSIFICATION_TYPE": "U", "NORAD_CAT_ID": 35622, "ELEMENT_SET_NO": 999, "REV_AT_EPOCH": 87262, "BSTAR": 0.0085488468, "MEAN_MOTION_DOT": 0.00118453, "MEAN_MOTION_DDOT": 0}, "tle": {"line1": "1 35622U 97051QU  25340.25749758  .00118453  00000+0  85488-2 0  9997", "line2": "2 35622  86.2036 266.7937 0010692   6.4287 145.8832 15.03498314872624"}}, "geometry": {"type": "Point", "coordinates": [-93.50497872438551, 2.1935118749570095]}}, {"type": "Feature", "properties": {"norad_id": 35628, "name": "IRIDIUM 33 DEB", "group": "iridium-33-debris", "lat": -26.16547525693042, "lon": -166.642534927322, "alt_km": 682.2550073535795, "timestamp": "2025-12-07T03:52:32.887119+00:00", "meta": {"OBJECT_NAME": "IRIDIUM 33 DEB", "OBJECT_ID": "1997-051RA", "EPOCH": "2025-12-04T09:28:36.488064", "MEAN_MOTION": 14.67394134, "ECCENTRICITY": 0.001144, "INCLINATION": 86.3576, "RA_OF_ASC_NODE": 12.797, "ARG_OF_PERICENTER": 12.0998, "MEAN_ANOMALY": 348.0488, "EPHEMERIS_TYPE": 0, "CLASSIFICATION_TYPE": "U", "NORAD_CAT_ID": 35628, "ELEMENT_SET_NO": 999, "REV_AT_EPOCH": 86324, "BSTAR": 0.0032445, "MEAN_MOTION_DOT": 0.00018408, "MEAN_MOTION_DDOT": 0}, "tle": {"line1": "1 35628U 97051RA  25338.39486676  .00018408  00000+0  32445-2 0  9996", "line2": "2 35628  86.3576  12.7970 0011440  12.0998 348.0488 14.67394134863246"}}, "geometry": {"type": "Point", "coordinates": [-166.642534927322, -26.16547525693042]}}, {"type": "Feature", "properties": {"norad_id": 35631, "name": "IRIDIUM 33 DEB", "group": "iridium-33-debris", "lat": 32.30002249034926, "lon": -158.9243110509375, "alt_km": 719.8977558437527, "timestamp": "2025-12-07T03:52:32.887136+00:00", "meta": {"OBJECT_NAME": "IRIDIUM 33 DEB", "OBJECT_ID": "1997-051RD", "EPOCH": "2025-12-06T09:00:36.554976", "MEAN_MOTION": 14.47284738, "ECCENTRICITY": 0.00184726, "INCLINATION": 86.3673, "RA_OF_ASC_NODE": 23.7157, "ARG_OF_PERICENTER": 137.2263, "MEAN_ANOMALY": 237.2764, "EPHEMERIS_TYPE": 0, "CLASSIFICATION_TYPE": "U", "NORAD_CAT_ID": 35631, "ELEMENT_SET_NO": 999, "REV_AT_EPOCH": 87105, "BSTAR": 0.00066274585, "MEAN_MOTION_DOT": 2.448e-05, "MEAN_MOTION_DDOT": 0}, "tle": {"line1": "1 35631U 97051RD  25340.37542309  .00002448  00000+0  66275-3 0  9993", "line2": "2 35631  86.3673  23.7157 0018472 137.2263 237.2764 14.47284738871054"}}, "geometry": {"type": "Point", "coordinates": [-158.9243110509375, 32.30002249034926]}}, {"type": "Feature", "properties": {"norad_id": 35680, "name": "IRIDIUM 33 DEB", "group": "iridium-33-debris", "lat": -71.02690076732253, "lon": 12.556159513638434, "alt_km": 722.6163880502017, "timestamp": "2025-12-07T03:52:32.887152+00:00", "meta": {"OBJECT_NAME": "IRIDIUM 33 DEB", "OBJECT_ID": "1997-051RJ", "EPOCH": "2025-12-06T09:39:51.736896", "MEAN_MOTION": 14.20748737, "ECCENTRICITY": 0.01506079, "INCLINATION": 86.1022, "RA_OF_ASC_NODE": 24.3298, "ARG_OF_PERICENTER": 298.7228, "MEAN_ANOMALY": 71.4349, "EPHEMERIS_TYPE": 0, "CLASSIFICATION_TYPE": "U", "NORAD_CAT_ID": 35680, "ELEMENT_SET_NO": 999, "REV_AT_EPOCH": 60611, "BSTAR": 0.0059192818, "MEAN_MOTION_DOT": 0.00014348, "MEAN_MOTION_DDOT": 0}, "tle": {"line1": "1 35680U 97051RJ  25340.40268214  .00014348  00000+0  59193-2 0  9993", "line2": "2 35680  86.1022  24.3298 0150607 298.7228  71.4349 14.20748737606113"}}, "geometry": {"type": "Point", "coordinates": [12.556159513638434, -71.02690076732253]}}]}